NORAD_CAT_ID,OBJECT_NAME,OBJECT_TYPE,EPOCH,MEAN_MOTION,ECCENTRICITY,INCLINATION,RA_OF_ASC_NODE,ARG_OF_PERICENTER,MEAN_ANOMALY,BSTAR,MEAN_MOTION_DOT,MEAN_MOTION_DDOT,TLE_LINE0,TLE_LINE1,TLE_LINE2,SEMIMAJOR_AXIS,PERIOD,APOGEE,PERIGEE,DECAYED
52991.0,STARLINK-4285,PAYLOAD,2024-08-19 17:23:58,15.08839994,0.0001706,53.2159,129.3259,98.1147,262.0038,-8.9163e-06,-4.3e-06,0.0,0 STARLINK-4285,1 52991U 22076F   24232.72497848 -.00000430  00000-0 -89163-5 0  9996,2 52991  53.2159 129.3259 0001706  98.1147 262.0038 15.08839994117587,6917.88,95.438,540.926,538.565,0.0
52991.0,STARLINK-4285,PAYLOAD,2024-08-20 02:56:16,15.08839246,0.0001591,53.2163,127.5393,134.3227,225.7896,1.5308e-05,-4.4e-07,0.0,0 STARLINK-4285,1 52991U 22076F   24233.12241836 -.00000044  00000-0  15308-4 0  9994,2 52991  53.2163 127.5393 0001591 134.3227 225.7896 15.08839246117178,6917.883,95.438,540.848,538.647,0.0
52991.0,STARLINK-4285,PAYLOAD,2024-08-20 20:25:31,15.08842573,0.000137,53.2169,124.269,114.9591,245.1544,0.00011955,1.615e-05,0.0,0 STARLINK-4285,1 52991U 22076F   24233.85105547  .00001615  00000-0  11955-3 0  9999,2 52991  53.2169 124.2690 0001370 114.9591 245.1544 15.08842573117758,6917.873,95.437,540.685,538.79,0.0
52991.0,STARLINK-4285,PAYLOAD,2024-08-20 23:36:17,15.08844073,0.0001481,53.2172,123.6744,112.9339,247.181,0.00014834,2.074e-05,0.0,0 STARLINK-4285,1 52991U 22076F   24233.98353509  .00002074  00000-0  14834-3 0  9995,2 52991  53.2172 123.6744 0001481 112.9339 247.1810 15.08844073117302,6917.868,95.437,540.757,538.708,0.0
52991.0,STARLINK-4285,PAYLOAD,2024-08-21 20:16:16,15.08871677,0.0001685,53.2165,119.8091,90.2075,269.911,-0.0009054,-0.00014681,0.0,0 STARLINK-4285,1 52991U 22076F   24234.84463997 -.00014681  00000-0 -90540-3 0  9991,2 52991  53.2165 119.8091 0001685  90.2075 269.9110 15.08871677117436,6917.784,95.436,540.814,538.483,0.0
52991.0,STARLINK-4285,PAYLOAD,2024-08-21 21:51:42,15.08831284,0.0001337,53.2162,119.5112,97.1571,262.9573,0.00025149,3.716e-05,0.0,0 STARLINK-4285,1 52991U 22076F   24234.91090526  .00003716  00000-0  25149-3 0  9991,2 52991  53.2162 119.5112 0001337  97.1571 262.9573 15.08831284117914,6917.907,95.438,540.697,538.847,0.0
